{
  "norad_id": 67446,
  "name": "STARLINK-36539",
  "history": [
    {
      "epoch": "2026-03-28T12:00:01.204416Z",
      "apogee_km": 483.7629743396301,
      "perigee_km": 482.3933385700984,
      "latitude_deg": -1.0380072426704635e-06,
      "longitude_deg": 93.53680849450626,
      "height_km": 483.17966672749685,
      "semi_major_axis_km": 6861.215156454864,
      "eccentricity": 9.981e-05,
      "inclination_deg": 43.0007,
      "raan_deg": 99.4614,
      "arg_perigee_deg": 241.6466,
      "mean_anomaly_deg": 118.4285,
      "mean_motion_rev_day": 15.27570295
    }
  ]
}