{"fetched_at":"2026-03-29T02:12:04Z","count":15717,"tles":[{"name":"STARLINK-36539","line1":"1 67446U 26008B   26087.50001394  .00029383  00000+0  10734-2 0  9999","line2":"2 67446  43.0007  99.4614 0000998 241.6466 118.4285 15.27570295 12444","category":"Starlink"}]}